<html>


<br>EGXE<br><table border=2>
<tr><td colspan=11>EGXE 161400Z 1615/1702 22015KT 9999 FEW020 SCT025</td></tr>
<tr><td>1615</td><td>1616</td><td>1617</td><td>1618</td><td>1619</td><td>1620</td><td>1621</td><td>1622</td><td>1623</td><td>1624</td><td>1625</td>
<tr>BLU</tr>
<tr></tr>
<tr><td colspan=4>BECMG</td></tr>
<tr><td colspan=4 bgcolor=#EEEEEE>WHT - 5000</td></tr>
<tr><td colspan=4 bgcolor=> - no lowest sig base</td></tr>
<tr><td colspan=4>30010KT</td></tr>
<tr></tr>
<tr><td colspan=7></td><td colspan=4>TEMPO</td></tr>
<tr><td colspan=7></td><td colspan=4 bgcolor=#00000000>NIL - None</td></tr>
<tr><td colspan=7></td><td colspan=4 bgcolor=#EEEEEE>WHT - 2000 FT</td></tr>
<tr><td colspan=7></td><td colspan=4>24022G32KT</td></tr>
<tr></tr>
<tr></tr></table>






</html>
